{
"type": "FeatureCollection",
"name": "data",
"features": [
{"type":"Feature","properties":{"Name":"North End Boston","Description":"Neighborhood in north Boston that was the location for Italian immigration during the late 19th and early 10th centuries. A center for cultural and cuisine flourishing that was eventually dubbed Little Italy."},"geometry":{"type":"Polygon","coordinates":[[[-71.058753,42.364926],[-71.056915,42.362951],[-71.052839,42.360914],[-71.05212,42.361645],[-71.050981,42.362132],[-71.050921,42.362973],[-71.049085,42.362483],[-71.048643,42.365808],[-71.05002,42.368763],[-71.050261,42.368872],[-71.050221,42.368981],[-71.052,42.369749],[-71.052841,42.368714],[-71.053176,42.368813],[-71.053416,42.368724],[-71.054997,42.369085],[-71.056718,42.368941],[-71.057424,42.368731],[-71.059118,42.367791],[-71.058623,42.366849],[-71.058753,42.364926]]]}},
{"type":"Feature","properties":{"Name":"Genoa","Description":"Genoese immigrants settled in Ferry Court due to maritime trade connections, affordable housing, and proximity to work at the waterfront."},"geometry":{"type":"Point","coordinates":[8.930867,44.407808]}},
{"type":"Feature","properties":{"Name":"1860s Migration"},"geometry":{"type":"LineString","coordinates":[[8.931025,44.407588],[-71.054571,42.363131]]}},
{"type":"Feature","properties":{"Name":"Campania","Description":"Earlier Italian pioneers had already established a foothold there, and immigrants naturally gravitated toward affordable housing near their community and familiar cultural establishments.","fill-opacity":0.3},"geometry":{"type":"Polygon","coordinates":[[[13.843716,40.707564],[14.196423,40.519504],[14.782731,40.645668],[14.909765,40.534359],[15.007483,40.370772],[14.948852,40.340986],[14.909765,40.244091],[14.973281,40.214249],[15.007483,40.176928],[15.144288,40.150792],[15.256664,40.072321],[15.271321,40.019957],[15.417898,39.99376],[15.549818,40.068582],[15.681737,40.034922],[15.691509,40.083537],[15.720825,40.165728],[15.794113,40.203055],[15.813657,40.262735],[15.740368,40.303735],[15.696395,40.374494],[15.530274,40.478636],[15.53516,40.571483],[15.456986,40.604876],[15.520502,40.656788],[15.388583,40.712364],[15.369039,40.812283],[15.378811,40.875118],[15.486301,40.867728],[15.55959,40.934202],[15.549818,41.063265],[15.290865,41.103775],[15.227348,41.14794],[15.271321,41.258221],[15.080771,41.338976],[15.105201,41.419631],[14.997711,41.485547],[14.777845,41.456259],[14.601953,41.37565],[14.113362,41.511163],[14.069389,41.463583],[14.113362,41.386648],[14.04496,41.397644],[13.991215,41.463583],[13.864181,41.419631],[13.873953,41.316962],[13.766463,41.221481],[13.843716,40.707564]]]}},
{"type":"Feature","properties":{"Name":"Ferry Court","Description":"Historical area near the entrance of the Summer Tunnel. Small courtyard where immigrants from Genoa and Parma settled."},"geometry":{"type":"Polygon","coordinates":[[[-71.054351,42.362753],[-71.054117,42.363131],[-71.054592,42.363564],[-71.055097,42.363089],[-71.054351,42.362753]]]}},
{"type":"Feature","properties":{"Name":"1880-1920 Campania immigration"},"geometry":{"type":"LineString","coordinates":[[14.095833,40.851217],[-71.053916,42.364312]]}},
{"type":"Feature","properties":{"Name":"Hanover & Prince Street","Description":"Area where a majority of the Campania region settled. This was the core of North End marketplace activity."},"geometry":{"type":"Polygon","coordinates":[[[-71.055819,42.362557],[-71.055704,42.3625],[-71.053093,42.365032],[-71.052482,42.367158],[-71.052649,42.367186],[-71.053224,42.365063],[-71.053928,42.364392],[-71.057079,42.366241],[-71.058024,42.36724],[-71.058141,42.367173],[-71.057153,42.366145],[-71.054012,42.364305],[-71.055819,42.362557]]]}},
{"type":"Feature","properties":{"Name":"North Sqaure, Fulton Street, Hanover Street","Description":"Enclave where Avellino diverged from the rest of Campania."},"geometry":{"type":"Polygon","coordinates":[[[-71.053673,42.3636],[-71.054106,42.363134],[-71.054351,42.362753],[-71.055094,42.363092],[-71.055813,42.3624],[-71.053919,42.361475],[-71.051943,42.363427],[-71.052069,42.36361],[-71.052796,42.363548],[-71.053131,42.363922],[-71.053673,42.3636]]]}},
{"type":"Feature","properties":{"Name":"1880-1920 Avellino Immigration"},"geometry":{"type":"LineString","coordinates":[[-71.053911,42.362617],[14.790832,40.914533]]}},
{"type":"Feature","properties":{"Name":"Avellino","Description":"City that settled slightly apart from the rest of Campania. Similarly settled for affordable housing and proximity to work."},"geometry":{"type":"Point","coordinates":[14.789768,40.913156]}},
{"type":"Feature","properties":{"Name":"Sicily","Description":"Especially Sciacca and Castellammare del Golfo; many Sicilians were fishermen, and the North End provided an ideal location for the continuation of this profession with affordable housing."},"geometry":{"type":"Polygon","coordinates":[[[12.42397,37.901913],[12.653904,37.564197],[12.974168,37.551177],[13.02344,37.479527],[13.187678,37.486044],[13.910327,37.087502],[14.271651,37.054741],[14.460525,36.792144],[15.125691,36.660507],[15.101055,36.890724],[15.3392,37.021965],[15.092843,37.459975],[15.643041,38.27033],[15.281717,38.218734],[15.076419,38.108972],[14.912181,38.186468],[14.715095,38.167102],[14.591916,38.044329],[14.00887,38.031394],[13.746089,37.986101],[13.327281,38.212282],[13.097347,38.186468],[13.089135,38.063728],[12.908473,38.011986],[12.744235,38.180014],[12.653904,38.096048],[12.530725,38.070193],[12.42397,37.901913]]]}},
{"type":"Feature","properties":{"Name":"1880-1920 Sicilian Immigration"},"geometry":{"type":"LineString","coordinates":[[14.066887,37.574289],[-71.051078,42.365243]]}},
{"type":"Feature","properties":{},"geometry":{"type":"Polygon","coordinates":[[[-71.053405,42.364719],[-71.048991,42.363293],[-71.048642,42.365788],[-71.04916,42.366873],[-71.051404,42.366467],[-71.052477,42.367151],[-71.053076,42.365076],[-71.053405,42.364719]]]}},
{"type":"Feature","properties":{"Name":"Abruzzo","Description":"Immigration driven by economic hardship, searching for affordable housing."},"geometry":{"type":"Polygon","coordinates":[[[13.902918,42.892317],[13.529219,42.816219],[13.328528,42.668829],[13.418493,42.587361],[13.183201,42.587361],[13.155519,42.52109],[13.16936,42.480273],[13.113997,42.444536],[13.155519,42.342318],[13.383891,42.178422],[13.335449,42.127118],[13.100156,42.188678],[13.030953,42.116852],[13.030953,42.039804],[13.376971,41.906034],[13.36313,41.833888],[13.54998,41.756498],[13.653785,41.787465],[13.965201,41.679014],[14.193573,41.735844],[14.179732,41.833888],[14.276617,41.911184],[14.387343,41.859664],[14.456546,41.741008],[14.767962,42.070635],[14.705679,42.096315],[14.698759,42.188678],[14.511909,42.229685],[14.394263,42.373001],[14.207413,42.464959],[13.902918,42.892317]]]}},
{"type":"Feature","properties":{"Name":"1880-1920 Abruzzesi Immigration"},"geometry":{"type":"LineString","coordinates":[[13.806033,42.239933],[-71.054278,42.364957]]}},
{"type":"Feature","properties":{"Name":"Salem Street, Prince Street, North Street, N Bennet Street","Description":"Immigrants from the Abruzzo region settled within the bounds of already existing enclaves of Italian immigrants."},"geometry":{"type":"Polygon","coordinates":[[[-71.055473,42.365299],[-71.053139,42.363931],[-71.05279,42.363545],[-71.052061,42.363617],[-71.051723,42.364172],[-71.053419,42.364723],[-71.055078,42.365919],[-71.055473,42.365299]]]}},
{"type":"Feature","properties":{"Name":"Molise","Description":"Immigrants emerging from a chain of migration and also due to cheap and immediate access to labor."},"geometry":{"type":"Polygon","coordinates":[[[13.976589,41.454075],[14.042828,41.396823],[14.110402,41.384149],[14.065353,41.443272],[14.110402,41.519209],[14.583418,41.375699],[14.757984,41.455935],[15.000123,41.489689],[14.943811,41.514993],[14.971967,41.645572],[15.022648,41.624529],[15.157795,41.704457],[15.107115,41.750686],[15.13527,41.935269],[14.763615,42.069176],[14.448271,41.750687],[14.382334,41.857663],[14.265975,41.903867],[14.182903,41.834231],[14.194208,41.733076],[13.973763,41.676105],[13.976589,41.454075]]]}},
{"type":"Feature","properties":{"Name":"1880-1920 Molisan Immigration"},"geometry":{"type":"LineString","coordinates":[[14.486458,41.628571],[-71.056542,42.36709]]}},
{"type":"Feature","properties":{"Name":"Charter Street, Prince Street, Salem Street","Description":"Area where Molise region settled."},"geometry":{"type":"Polygon","coordinates":[[[-71.054271,42.367072],[-71.056642,42.368253],[-71.059118,42.367752],[-71.058636,42.366888],[-71.058035,42.367234],[-71.056988,42.366188],[-71.055473,42.365302],[-71.055076,42.365925],[-71.054695,42.366412],[-71.054271,42.367072]]]}},
{"type":"Feature","properties":{"Name":"Parma","Description":"Affordable housing, close proximity to downtown jobs, and the area's availability of low-rent tenements"},"geometry":{"type":"Point","coordinates":[10.301321,44.818512]}},
{"type":"Feature","properties":{"Name":"1880-1920 Parmigiani Immigration"},"geometry":{"type":"LineString","coordinates":[[10.278702,44.807815],[-71.054506,42.363146]]}},
{"type":"Feature","properties":{"Name":"Italy","Description":"Country of origin for many North End immigrants"},"geometry":{"type":"Point","coordinates":[12.481011,42.525315]}},
{"type":"Feature","properties":{"Name":"Italian Immigration","Description":"The location of origin for many immigrants to the North End"},"geometry":{"type":"LineString","coordinates":[[12.33378,42.575856],[-71.048833,42.364602]]}},
{"type":"Feature","properties":{"Name":"The Pale of Settlement","Description":"By far the largest sender of Jewish immigrants to Boston, the Russian Empire restricted its Jewish population to a massive, tightly controlled western border region"},"geometry":{"type":"Polygon","coordinates":[[[20.930419,55.391732],[22.421392,54.96394],[22.776998,54.407457],[21.588513,54.124411],[16.681323,53.016259],[17.050073,51.746023],[18.672696,50.785621],[24.064725,50.629673],[26.22134,49.951185],[26.92236,48.102576],[28.270347,46.692652],[28.079091,46.085466],[28.199383,45.512956],[29.663964,45.401254],[30.430972,46.18746],[31.310498,46.545531],[31.792298,46.380138],[33.49457,45.815731],[32.550105,45.401807],[33.504487,45.203421],[33.452438,44.435806],[33.709579,44.305226],[34.812814,44.738851],[35.385246,45.084268],[36.52471,45.031536],[36.673677,45.366694],[35.253066,45.401921],[34.649082,45.940448],[38.16744,47.189645],[38.541501,47.688976],[39.914923,47.81724],[39.54612,48.620936],[35.649464,49.69132],[34.252169,51.263248],[34.17428,52.089939],[32.598211,53.534441],[31.565276,54.049216],[30.810745,55.350114],[31.035905,55.766723],[27.672915,56.897291],[25.038136,56.394001],[20.960718,56.167016],[20.930419,55.391732]]]}},
{"type":"Feature","properties":{"Name":"1880-1920 Russian Jewish Immigration"},"geometry":{"type":"LineString","coordinates":[[27.962524,51.582845],[-71.056125,42.364475]]}},
{"type":"Feature","properties":{"Name":"Prince, Hanover, Endicott","Description":"Location of Jewish immigration from the Pale of Settlement due to anti-semitism and limited opportunity."},"geometry":{"type":"Polygon","coordinates":[[[-71.05753,42.365887],[-71.05723,42.363437],[-71.055835,42.362557],[-71.054013,42.364311],[-71.057176,42.366124],[-71.05753,42.365887]]]}},
{"type":"Feature","properties":{"Name":"Congress Poland","Description":". The Jewish immigrants identifying as \"Polish\" came primarily from the northeastern districts of Russian-controlled Poland"},"geometry":{"type":"Polygon","coordinates":[[[19.757235,50.009743],[21.219356,50.392007],[21.826149,50.796354],[22.103829,50.79208],[22.54976,50.322487],[23.487073,50.277233],[23.941114,50.360321],[24.099015,50.866688],[23.57069,51.442149],[23.127522,52.22383],[22.348668,52.647387],[21.820529,53.160502],[22.825317,53.85141],[22.487329,54.319644],[21.441784,54.142723],[21.586264,53.465192],[19.599833,53.145984],[19.263991,52.404524],[18.265705,51.213406],[19.757235,50.009743]]]}},
{"type":"Feature","properties":{"Name":"1880-1920 Polish Jewish Immigration"},"geometry":{"type":"LineString","coordinates":[[20.618191,51.902882],[-71.056171,42.364461]]}},
{"type":"Feature","properties":{"Name":"1880-1920 Lithuanian Jewish Immigration"},"geometry":{"type":"LineString","coordinates":[[-71.056226,42.364499],[23.82625,55.474697]]}},
{"type":"Feature","properties":{"Name":"Lithuania","Description":"Lithuanian Jews—culturally known as Litvaks—formed a highly literate, distinct cultural group in Boston"},"geometry":{"type":"Polygon","coordinates":[[[20.826206,55.414172],[22.561715,55.00512],[22.649226,54.382991],[23.816925,53.842367],[25.508134,54.310855],[26.900747,55.31576],[26.604724,55.726654],[24.825659,56.485515],[21.207638,56.327865],[20.826206,55.414172]]]}},
{"type":"Feature","properties":{"Name":"Galicia","Description":"Jewish immigrants who listed their country of origin as Austria or Hungary almost exclusively came from a single, specific crown-land: Galicia"},"geometry":{"type":"Polygon","coordinates":[[[18.676845,49.55408],[19.02774,49.404223],[19.519074,49.527851],[19.788799,49.284065],[19.932187,49.216238],[20.248553,49.439772],[20.72251,49.378676],[21.076336,49.475108],[21.822388,49.432437],[22.432826,49.152079],[24.408641,48.364767],[24.664677,47.862072],[25.017076,47.813974],[25.251901,47.875888],[25.370929,48.85237],[26.63055,48.883664],[26.220435,49.937371],[24.063055,50.632481],[21.488265,50.700537],[18.676845,49.55408]]]}},
{"type":"Feature","properties":{"Name":"1880-1920 Galician Jewish Immigration"},"geometry":{"type":"LineString","coordinates":[[22.919542,49.691417],[-71.056145,42.364553]]}},
{"type":"Feature","properties":{"Name":"Shalom Street","Description":"Nickname"},"geometry":{"type":"LineString","coordinates":[[-71.056308,42.362885],[-71.055551,42.364123],[-71.055436,42.365215]]}},
{"type":"Feature","properties":{"Name":"1880-1920 Romanian Jewish Immigration"},"geometry":{"type":"LineString","coordinates":[[-71.056194,42.364537],[24.792231,45.755868]]}},
{"type":"Feature","properties":{"Name":"Romania","Description":"Romanian Jewish immigrants came predominantly from the northern and eastern borderlands of the Old Kingdom of Romania"},"geometry":{"type":"Polygon","coordinates":[[[20.181142,46.143367],[21.534952,45.131994],[21.394317,44.839479],[22.205244,44.52833],[22.439428,44.670181],[22.856041,44.455171],[22.967342,43.848312],[25.401153,43.648621],[26.030205,43.918078],[27.192484,44.12246],[28.582275,43.718502],[29.025779,44.773792],[29.648248,44.813038],[29.68595,45.397099],[28.211527,45.504388],[28.05446,46.085493],[28.275812,46.684273],[26.768922,48.270898],[25.02693,47.809067],[23.096761,48.16518],[21.286885,46.364413],[20.181142,46.143367]]]}},
{"type":"Feature","properties":{"Name":"West End, Boston","Description":"Because of increasing congestion in the North End, wealthier settlers began moving to the West End"},"geometry":{"type":"Polygon","coordinates":[[[-71.062965,42.361257],[-71.062186,42.362309],[-71.059779,42.363011],[-71.057916,42.364003],[-71.058762,42.364964],[-71.058627,42.366867],[-71.059101,42.367768],[-71.060627,42.367117],[-71.060559,42.36857],[-71.062084,42.36842],[-71.062084,42.368219],[-71.063101,42.36872],[-71.066117,42.368244],[-71.068354,42.367418],[-71.0705,42.364961],[-71.070848,42.365027],[-71.072234,42.364722],[-71.07274,42.364183],[-71.073114,42.36273],[-71.072991,42.361312],[-71.070544,42.360885],[-71.069299,42.361148],[-71.062965,42.361257]]]}},
{"type":"Feature","properties":{"Name":"Move from North End to West End","Description":"The West End: Jewish families moved west across the Shawmut Peninsula into Boston's West End, where they established a massive community before eventually fanning out to the streetcar suburbs of Dorchester, Roxbury, and Mattapan."},"geometry":{"type":"LineString","coordinates":[[-71.065429,42.364468],[-71.056265,42.364533]]}},
{"type":"Feature","properties":{"Name":"East Boston","Description":"Italian populations increasingly crossed the harbor into East Boston. This geographical extension created a unified voting bloc that eventually allowed Italian-American politicians, such as state senator Scollay Langone Jr., to challenge Irish political dominance in a district that tied the North, West, and South Ends together"},"geometry":{"type":"Polygon","coordinates":[[[-71.045864,42.371248],[-71.044841,42.371039],[-71.044992,42.370594],[-71.041615,42.36421],[-71.037996,42.362727],[-71.033908,42.360512],[-71.028483,42.363658],[-71.027774,42.365015],[-71.026396,42.364336],[-71.026772,42.361653],[-71.028345,42.358091],[-71.017478,42.352799],[-71.007708,42.346668],[-71.004796,42.347228],[-71.004694,42.350958],[-71.003471,42.355064],[-70.998547,42.356932],[-70.993842,42.353812],[-70.992974,42.354226],[-70.991967,42.353925],[-70.991589,42.353953],[-70.990175,42.353061],[-70.989534,42.353632],[-70.990628,42.354496],[-70.988931,42.355834],[-70.986139,42.357675],[-70.986845,42.359396],[-70.986479,42.359532],[-70.987516,42.361537],[-70.988552,42.362078],[-70.990382,42.36192],[-70.99116,42.361514],[-70.993004,42.361458],[-70.993751,42.361672],[-70.995429,42.36094],[-70.997075,42.3605],[-70.997959,42.360793],[-71.003493,42.36549],[-71.002649,42.366916],[-70.999271,42.36647],[-70.999995,42.368164],[-71.001684,42.369501],[-70.998306,42.377522],[-71.006268,42.379482],[-71.011576,42.371818],[-71.016402,42.374224],[-71.015603,42.375075],[-71.0199,42.377254],[-71.016544,42.380257],[-71.015917,42.380415],[-71.015026,42.379221],[-71.013913,42.379514],[-71.013368,42.379459],[-71.0133,42.379828],[-71.013554,42.380209],[-71.013513,42.380427],[-71.013457,42.38086],[-71.012907,42.38105],[-71.012414,42.380971],[-71.012029,42.380586],[-71.0117,42.380428],[-71.011221,42.380506],[-71.011125,42.38066],[-71.010997,42.382611],[-71.01056,42.38353],[-71.009751,42.384183],[-71.007874,42.384641],[-71.005245,42.383975],[-71.002932,42.383688],[-70.998185,42.381443],[-70.997088,42.381242],[-70.995169,42.381799],[-70.994639,42.383768],[-70.994607,42.384138],[-70.995092,42.384232],[-70.995005,42.385383],[-70.994687,42.385477],[-70.994297,42.385841],[-70.99382,42.38617],[-70.993041,42.386358],[-70.992147,42.386342],[-70.991749,42.38639],[-70.990964,42.387023],[-70.990473,42.387361],[-70.989741,42.387554],[-70.988701,42.387515],[-70.986831,42.387032],[-70.986622,42.387409],[-70.98781,42.389106],[-70.987875,42.390212],[-70.987162,42.391385],[-70.987293,42.392138],[-70.987803,42.392482],[-70.989128,42.392794],[-70.990468,42.392902],[-70.992537,42.392407],[-70.993993,42.392687],[-70.994566,42.392492],[-70.998547,42.395254],[-71.001804,42.395521],[-71.004097,42.393739],[-71.011697,42.395521],[-71.012355,42.395609],[-71.013306,42.395496],[-71.014785,42.395002],[-71.015055,42.394629],[-71.015396,42.394178],[-71.015807,42.393927],[-71.015818,42.392973],[-71.014692,42.392193],[-71.0159,42.390717],[-71.016384,42.390138],[-71.016519,42.390199],[-71.016671,42.390095],[-71.016709,42.389992],[-71.016626,42.389931],[-71.01657,42.38991],[-71.017058,42.389283],[-71.017692,42.388499],[-71.017937,42.388591],[-71.018047,42.388417],[-71.017849,42.388334],[-71.018513,42.387512],[-71.019036,42.387002],[-71.019757,42.386287],[-71.020324,42.386191],[-71.020997,42.386367],[-71.022361,42.385854],[-71.023576,42.38503],[-71.027074,42.383503],[-71.027215,42.383305],[-71.02723,42.383013],[-71.027108,42.382664],[-71.028446,42.382727],[-71.028901,42.383095],[-71.028972,42.383588],[-71.029342,42.383609],[-71.029811,42.383399],[-71.029996,42.383389],[-71.029968,42.382916],[-71.030224,42.382863],[-71.030708,42.382926],[-71.031405,42.382737],[-71.032688,42.38269],[-71.033653,42.384651],[-71.03498,42.384651],[-71.039561,42.384165],[-71.040054,42.383408],[-71.040661,42.382175],[-71.042407,42.382119],[-71.041838,42.380633],[-71.043318,42.380437],[-71.043242,42.379932],[-71.043183,42.378324],[-71.041494,42.376631],[-71.041977,42.374492],[-71.041373,42.373957],[-71.042649,42.372469],[-71.044659,42.373244],[-71.045864,42.371248]]]}},
{"type":"Feature","properties":{"Name":"East Boston Migration","Description":"Italian populations increasingly crossed the harbor into East Boston. This geographical extension created a unified voting bloc that eventually allowed Italian-American politicians, such as state senator Scollay Langone Jr., to challenge Irish political dominance in a district that tied the North, West, and South Ends together"},"geometry":{"type":"LineString","coordinates":[[-71.054068,42.364784],[-71.026255,42.3719]]}}
]
}
